OBJECT_NAME,OBJECT_ID,EPOCH,MEAN_MOTION,ECCENTRICITY,INCLINATION,RA_OF_ASC_NODE,ARG_OF_PERICENTER,MEAN_ANOMALY,EPHEMERIS_TYPE,CLASSIFICATION_TYPE,NORAD_CAT_ID,ELEMENT_SET_NO,REV_AT_EPOCH,BSTAR,MEAN_MOTION_DOT,MEAN_MOTION_DDOT
STARLINK-4175,2022-086AT,2026-06-26T18:00:00.998784,15.19944863,.0002756,53.1614,53.9014,88.0360,64.6617,0,U,53283,999,582,.12001E-2,.25902E-3,0
STARLINK-4173,2022-086AV,2026-06-26T18:00:00.998784,15.20721400,.0001494,53.1594,53.8018,89.0960,175.8075,0,U,53285,999,582,.99484E-3,.21899E-3,0
STARLINK-4165,2022-086AW,2026-06-26T09:39:14.387040,15.09596864,.0001274,53.1590,55.6241,98.5380,261.5756,0,U,53286,999,21760,.54946E-2,.90136E-3,0
STARLINK-4107,2022-086AX,2026-06-26T18:00:00.998784,15.20757801,.0001688,53.1591,53.9407,115.4915,116.6704,0,U,53287,999,577,.24843E-2,.55488E-3,0
STARLINK-4162,2022-086AY,2026-06-26T18:00:00.998784,15.19861444,.0001581,53.1604,53.8540,92.1049,124.8500,0,U,53288,999,582,.75209E-2,.166829E-2,0
STARLINK-4176,2022-086AZ,2026-06-26T09:13:09.194016,15.13711621,.0001423,53.1605,51.0567,131.3842,228.7274,0,U,53289,999,21766,.95822E-2,.178679E-2,0
STARLINK-4149,2022-086BA,2026-06-25T22:51:02.386080,15.09461097,.00016451,53.2160,58.0543,88.7391,271.3790,0,U,53290,999,21753,.72220292E-3,.11421E-3,0
STARLINK-4166,2022-086BB,2026-06-26T17:59:24.457632,15.13054917,.0002324,53.1596,49.0743,86.3097,273.8162,0,U,53291,999,21772,.70524E-2,.128116E-2,0
STARLINK-4159,2022-086BC,2026-06-26T18:00:00.998784,15.21260850,.0001328,53.1602,54.0378,76.1489,116.5355,0,U,53292,999,582,.92647E-3,.20696E-3,0
STARLINK-4148,2022-086BD,2026-06-26T15:36:54.230688,15.08825687,.0001513,53.1599,44.8152,73.2626,286.8532,0,U,53293,999,21777,.47231E-5,-.213E-5,0
STARLINK-4146,2022-086BE,2026-06-26T08:06:26.625024,15.08828482,.0001365,53.1602,46.0672,87.0229,273.0918,0,U,53294,999,21777,-.20344E-4,-.612E-5,0
STARLINK-4522,2022-097A,2026-06-26T18:06:36.216576,15.08831568,.0001178,53.1590,354.3547,94.4156,265.6970,0,U,53388,999,21531,-.18063E-4,-.575E-5,0
STARLINK-4523,2022-097B,2026-06-26T17:56:00.194208,15.08837374,.0001491,53.1605,354.3886,97.1208,262.9953,0,U,53389,999,21513,.32976E-4,.237E-5,0
STARLINK-4517,2022-097C,2026-06-26T18:01:18.285312,15.08831598,.0001156,53.1612,354.3717,93.9272,266.1851,0,U,53390,999,21528,.7463E-5,-.169E-5,0
STARLINK-4521,2022-097D,2026-06-26T17:50:42.681120,15.08829640,.0001157,53.1609,354.4067,94.3713,265.7411,0,U,53391,999,21513,.12778E-3,.1746E-4,0
STARLINK-4535,2022-097E,2026-06-26T17:40:06.293280,15.08830778,.0001175,53.1615,354.4384,85.5063,274.6062,0,U,53392,999,21513,.67277E-4,.783E-5,0
STARLINK-4530,2022-097F,2026-06-26T17:45:24.525216,15.08872226,.000136,53.1618,354.4211,75.9690,284.1453,0,U,53393,999,21513,-.21597E-3,-.3727E-4,0
STARLINK-4544,2022-097G,2026-06-26T18:02:32.494272,15.08840203,.0001035,53.1589,343.9773,86.8909,273.2201,0,U,53394,999,21528,.52845E-4,.553E-5,0
STARLINK-4534,2022-097H,2026-06-26T17:36:11.097792,15.08832118,.0001128,53.1607,354.4606,84.4474,275.6646,0,U,53395,999,21497,.5189E-4,.538E-5,0
STARLINK-4524,2022-097J,2026-06-26T17:13:36.681024,15.08829156,.0001305,53.1610,354.5218,86.7961,273.3180,0,U,53396,999,21497,-.37611E-5,-.348E-5,0
STARLINK-4515,2022-097K,2026-06-26T17:29:30.605280,15.08829958,.0001025,53.1604,354.4701,82.7682,277.3426,0,U,53397,999,21497,-.80628E-5,-.416E-5,0
STARLINK-4512,2022-097L,2026-06-26T17:03:00.498816,15.08831629,.0001029,53.1613,354.5514,102.5452,257.5655,0,U,53398,999,21497,.23326E-4,.83E-6,0
STARLINK-4528,2022-097M,2026-06-26T17:18:54.607104,15.08828121,.0001157,53.1609,354.5044,86.1606,273.9518,0,U,53399,999,21497,-.63025E-5,-.388E-5,0
STARLINK-4520,2022-097N,2026-06-26T18:22:30.026784,15.08831247,.0001407,53.1602,354.3081,88.8103,271.3049,0,U,53400,999,21498,-.11891E-4,-.477E-5,0
STARLINK-4525,2022-097P,2026-06-26T17:08:18.053376,15.08840323,.0001036,53.1592,354.5363,115.0078,245.1021,0,U,53401,999,21497,-.34996E-4,-.845E-5,0
STARLINK-4499,2022-097Q,2026-06-26T18:17:12.116256,15.08831876,.000133,53.1592,354.3236,91.5682,268.5462,0,U,53402,999,21498,-.236E-4,-.663E-5,0
STARLINK-4507,2022-097R,2026-06-26T17:46:51.038400,15.08865977,.000128,53.1584,354.7652,99.2127,260.9009,0,U,53403,999,21497,-.50894E-3,-.8385E-4,0
STARLINK-4509,2022-097S,2026-06-26T17:53:23.900064,15.08829548,.0001454,53.1590,344.3282,96.0614,264.0543,0,U,53404,999,21511,-.27718E-4,-.729E-5,0
STARLINK-4510,2022-097T,2026-06-26T18:11:54.763872,15.08839992,.0001533,53.1569,354.3373,93.3504,266.7663,0,U,53405,999,21498,.28824E-4,.171E-5,0
STARLINK-4533,2022-097U,2026-06-26T17:35:42.741312,15.09099823,.0002091,53.1591,344.4480,68.4566,291.6648,0,U,53406,999,21511,.19931E-2,.31804E-3,0
