STARLINK-4175           
1 53283U 22086AT  26177.75001156  .00025902  00000+0  12001-2 0  9990
2 53283  53.1614  53.9014 0002756  88.0360  64.6617 15.19944863  5825
STARLINK-4173           
1 53285U 22086AV  26177.75001156  .00021899  00000+0  99484-3 0  9994
2 53285  53.1594  53.8018 0001494  89.0960 175.8075 15.20721400  5827
STARLINK-4165           
1 53286U 22086AW  26177.40224985  .00090136  00000+0  54946-2 0  9997
2 53286  53.1590  55.6241 0001274  98.5380 261.5756 15.09596864217600
STARLINK-4107           
1 53287U 22086AX  26177.75001156  .00055488  00000+0  24843-2 0  9993
2 53287  53.1591  53.9407 0001688 115.4915 116.6704 15.20757801  5778
STARLINK-4162           
1 53288U 22086AY  26177.75001156  .00166829  00000+0  75209-2 0  9998
2 53288  53.1604  53.8540 0001581  92.1049 124.8500 15.19861444  5820
STARLINK-4176           
1 53289U 22086AZ  26177.38413419  .00178679  00000+0  95822-2 0  9996
2 53289  53.1605  51.0567 0001423 131.3842 228.7274 15.13711621217667
STARLINK-4149           
1 53290U 22086BA  26176.95211095  .00011421  00000+0  72220-3 0  9995
2 53290  53.2160  58.0543 0001645  88.7391 271.3790 15.09461097217534
STARLINK-4166           
1 53291U 22086BB  26177.74958863  .00128116  00000+0  70524-2 0  9999
2 53291  53.1596  49.0743 0002324  86.3097 273.8162 15.13054917217726
STARLINK-4159           
1 53292U 22086BC  26177.75001156  .00020696  00000+0  92647-3 0  9990
2 53292  53.1602  54.0378 0001328  76.1489 116.5355 15.21260850  5827
STARLINK-4148           
1 53293U 22086BD  26177.65062767 -.00000213  00000+0  47231-5 0  9990
2 53293  53.1599  44.8152 0001513  73.2626 286.8532 15.08825687217774
STARLINK-4146           
1 53294U 22086BE  26177.33780816 -.00000612  00000+0 -20344-4 0  9997
2 53294  53.1602  46.0672 0001365  87.0229 273.0918 15.08828482217770
STARLINK-4522           
1 53388U 22097A   26177.75458584 -.00000575  00000+0 -18063-4 0  9996
2 53388  53.1590 354.3547 0001178  94.4156 265.6970 15.08831568215311
STARLINK-4523           
1 53389U 22097B   26177.74722447  .00000237  00000+0  32976-4 0  9990
2 53389  53.1605 354.3886 0001491  97.1208 262.9953 15.08837374215133
STARLINK-4517           
1 53390U 22097C   26177.75090608 -.00000169  00000+0  74630-5 0  9999
2 53390  53.1612 354.3717 0001156  93.9272 266.1851 15.08831598215280
STARLINK-4521           
1 53391U 22097D   26177.74354955  .00001746  00000+0  12778-3 0  9991
2 53391  53.1609 354.4067 0001157  94.3713 265.7411 15.08829640215138
STARLINK-4535           
1 53392U 22097E   26177.73618395  .00000783  00000+0  67277-4 0  9997
2 53392  53.1615 354.4384 0001175  85.5063 274.6062 15.08830778215133
STARLINK-4530           
1 53393U 22097F   26177.73986719 -.00003727  00000+0 -21597-3 0  9993
2 53393  53.1618 354.4211 0001360  75.9690 284.1453 15.08872226215135
STARLINK-4544           
1 53394U 22097G   26177.75176498  .00000553  00000+0  52845-4 0  9994
2 53394  53.1589 343.9773 0001035  86.8909 273.2201 15.08840203215288
STARLINK-4534           
1 53395U 22097H   26177.73346178  .00000538  00000+0  51890-4 0  9999
2 53395  53.1607 354.4606 0001128  84.4474 275.6646 15.08832118214976
STARLINK-4524           
1 53396U 22097J   26177.71778566 -.00000348  00000+0 -37611-5 0  9995
2 53396  53.1610 354.5218 0001305  86.7961 273.3180 15.08829156214970
STARLINK-4515           
1 53397U 22097K   26177.72882645 -.00000416  00000+0 -80628-5 0  9993
2 53397  53.1604 354.4701 0001025  82.7682 277.3426 15.08829958214972
STARLINK-4512           
1 53398U 22097L   26177.71042244  .00000083  00000+0  23326-4 0  9995
2 53398  53.1613 354.5514 0001029 102.5452 257.5655 15.08831629214978
STARLINK-4528           
1 53399U 22097M   26177.72146536 -.00000388  00000+0 -63025-5 0  9997
2 53399  53.1609 354.5044 0001157  86.1606 273.9518 15.08828121214975
STARLINK-4520           
1 53400U 22097N   26177.76562531 -.00000477  00000+0 -11891-4 0  9993
2 53400  53.1602 354.3081 0001407  88.8103 271.3049 15.08831247214984
STARLINK-4525           
1 53401U 22097P   26177.71409784 -.00000845  00000+0 -34996-4 0  9999
2 53401  53.1592 354.5363 0001036 115.0078 245.1021 15.08840323214973
STARLINK-4499           
1 53402U 22097Q   26177.76194579 -.00000663  00000+0 -23600-4 0  9996
2 53402  53.1592 354.3236 0001330  91.5682 268.5462 15.08831876214989
STARLINK-4507           
1 53403U 22097R   26177.74086850 -.00008385  00000+0 -50894-3 0  9990
2 53403  53.1584 354.7652 0001280  99.2127 260.9009 15.08865977214971
STARLINK-4509           
1 53404U 22097S   26177.74541551 -.00000729  00000+0 -27718-4 0  9999
2 53404  53.1590 344.3282 0001454  96.0614 264.0543 15.08829548215111
STARLINK-4510           
1 53405U 22097T   26177.75827273  .00000171  00000+0  28824-4 0  9997
2 53405  53.1569 354.3373 0001533  93.3504 266.7663 15.08839992214986
STARLINK-4533           
1 53406U 22097U   26177.73313358  .00031804  00000+0  19931-2 0  9994
2 53406  53.1591 344.4480 0002091  68.4566 291.6648 15.09099823215110
